{
  "type": "FeatureCollection",
  "features": [
    {
      "type": "Feature",
      "properties": {
        "norad_id": 41330,
        "name": "COSMOS 2514 (751)",
        "group": "glo-ops",
        "lat": -63.50666069292768,
        "lon": -151.97978076199516,
        "alt_km": 19112.520685224736,
        "timestamp": "2025-12-07T16:44:04.172453+00:00",
        "meta_object_name": "COSMOS 2514 (751)",
        "meta_object_id": "2016-008A",
        "meta_epoch": "2025-12-06T21:19:17.818752",
        "meta_mean_motion": 2.13102518,
        "meta_eccentricity": 0.00123323,
        "meta_inclination": 65.1372,
        "meta_ra_of_asc_node": 319.6044,
        "meta_arg_of_pericenter": 219.9906,
        "meta_mean_anomaly": 139.9121,
        "meta_ephemeris_type": 0,
        "meta_classification_type": "U",
        "meta_norad_cat_id": 41330,
        "meta_element_set_no": 999,
        "meta_rev_at_epoch": 7652,
        "meta_bstar": 0,
        "meta_mean_motion_dot": -4.9e-07,
        "meta_mean_motion_ddot": 0,
        "tle_line1": "1 41330U 16008A   25340.88840068 -.00000049  00000+0  00000+0 0  9994",
        "tle_line2": "2 41330  65.1372 319.6044 0012332 219.9906 139.9121  2.13102518 76520"
      },
      "geometry": {
        "type": "Point",
        "coordinates": [
          -151.97978076199516,
          -63.50666069292768
        ]
      }
    },
    {
      "type": "Feature",
      "properties": {
        "norad_id": 42939,
        "name": "COSMOS 2522 (752)",
        "group": "glo-ops",
        "lat": 21.871700049422902,
        "lon": -150.33443268078307,
        "alt_km": 19143.05170284856,
        "timestamp": "2025-12-07T16:44:04.172464+00:00",
        "meta_object_name": "COSMOS 2522 (752)",
        "meta_object_id": "2017-055A",
        "meta_epoch": "2025-12-02T23:20:47.282208",
        "meta_mean_motion": 2.1310185,
        "meta_eccentricity": 0.00065327,
        "meta_inclination": 64.0758,
        "meta_ra_of_asc_node": 198.5618,
        "meta_arg_of_pericenter": 226.0683,
        "meta_mean_anomaly": 133.9743,
        "meta_ephemeris_type": 0,
        "meta_classification_type": "U",
        "meta_norad_cat_id": 42939,
        "meta_element_set_no": 999,
        "meta_rev_at_epoch": 6379,
        "meta_bstar": 0,
        "meta_mean_motion_dot": 1.07e-06,
        "meta_mean_motion_ddot": 0,
        "tle_line1": "1 42939U 17055A   25336.97276947  .00000107  00000+0  00000+0 0  9991",
        "tle_line2": "2 42939  64.0758 198.5618 0006532 226.0683 133.9743  2.13101850 63796"
      },
      "geometry": {
        "type": "Point",
        "coordinates": [
          -150.33443268078307,
          21.871700049422902
        ]
      }
    },
    {
      "type": "Feature",
      "properties": {
        "norad_id": 43508,
        "name": "COSMOS 2527 (756)",
        "group": "glo-ops",
        "lat": 47.823729749918705,
        "lon": 110.51864413775043,
        "alt_km": 19146.291617124574,
        "timestamp": "2025-12-07T16:44:04.172475+00:00",
        "meta_object_name": "COSMOS 2527 (756)",
        "meta_object_id": "2018-053A",
        "meta_epoch": "2025-12-04T19:27:07.624224",
        "meta_mean_motion": 2.1310203,
        "meta_eccentricity": 0.00086941,
        "meta_inclination": 65.4682,
        "meta_ra_of_asc_node": 80.3968,
        "meta_arg_of_pericenter": 224.6174,
        "meta_mean_anomaly": 135.3122,
        "meta_ephemeris_type": 0,
        "meta_classification_type": "U",
        "meta_norad_cat_id": 43508,
        "meta_element_set_no": 999,
        "meta_rev_at_epoch": 5813,
        "meta_bstar": 0,
        "meta_mean_motion_dot": -2.1e-07,
        "meta_mean_motion_ddot": 0,
        "tle_line1": "1 43508U 18053A   25338.81050491 -.00000021  00000+0  00000+0 0  9998",
        "tle_line2": "2 43508  65.4682  80.3968 0008694 224.6174 135.3122  2.13102030 58136"
      },
      "geometry": {
        "type": "Point",
        "coordinates": [
          110.51864413775043,
          47.823729749918705
        ]
      }
    },
    {
      "type": "Feature",
      "properties": {
        "norad_id": 43687,
        "name": "COSMOS 2529 (757)",
        "group": "glo-ops",
        "lat": -18.08577955896542,
        "lon": -169.98960767529354,
        "alt_km": 19131.199790819788,
        "timestamp": "2025-12-07T16:44:04.172487+00:00",
        "meta_object_name": "COSMOS 2529 (757)",
        "meta_object_id": "2018-086A",
        "meta_epoch": "2025-12-03T00:44:36.468960",
        "meta_mean_motion": 2.13101888,
        "meta_eccentricity": 0.00072932,
        "meta_inclination": 64.2917,
        "meta_ra_of_asc_node": 199.2166,
        "meta_arg_of_pericenter": 254.4618,
        "meta_mean_anomaly": 105.5545,
        "meta_ephemeris_type": 0,
        "meta_classification_type": "U",
        "meta_norad_cat_id": 43687,
        "meta_element_set_no": 999,
        "meta_rev_at_epoch": 5510,
        "meta_bstar": 0,
        "meta_mean_motion_dot": 1.06e-06,
        "meta_mean_motion_ddot": 0,
        "tle_line1": "1 43687U 18086A   25337.03097765  .00000106  00000+0  00000+0 0  9993",
        "tle_line2": "2 43687  64.2917 199.2166 0007293 254.4618 105.5545  2.13101888 55102"
      },
      "geometry": {
        "type": "Point",
        "coordinates": [
          -169.98960767529354,
          -18.08577955896542
        ]
      }
    },
    {
      "type": "Feature",
      "properties": {
        "norad_id": 44299,
        "name": "COSMOS 2534 (758)",
        "group": "glo-ops",
        "lat": 55.30978742730417,
        "lon": -24.86141075228458,
        "alt_km": 19146.32444577694,
        "timestamp": "2025-12-07T16:44:04.172498+00:00",
        "meta_object_name": "COSMOS 2534 (758)",
        "meta_object_id": "2019-030A",
        "meta_epoch": "2025-12-05T09:38:44.490912",
        "meta_mean_motion": 2.13101983,
        "meta_eccentricity": 0.00090311,
        "meta_inclination": 64.3653,
        "meta_ra_of_asc_node": 199.1403,
        "meta_arg_of_pericenter": 283.6175,
        "meta_mean_anomaly": 229.7103,
        "meta_ephemeris_type": 0,
        "meta_classification_type": "U",
        "meta_norad_cat_id": 44299,
        "meta_element_set_no": 999,
        "meta_rev_at_epoch": 5079,
        "meta_bstar": 0,
        "meta_mean_motion_dot": 8.7e-07,
        "meta_mean_motion_ddot": 0,
        "tle_line1": "1 44299U 19030A   25339.40190383  .00000087  00000+0  00000+0 0  9994",
        "tle_line2": "2 44299  64.3653 199.1403 0009031 283.6175 229.7103  2.13101983 50792"
      },
      "geometry": {
        "type": "Point",
        "coordinates": [
          -24.86141075228458,
          55.30978742730417
        ]
      }
    },
    {
      "type": "Feature",
      "properties": {
        "norad_id": 44850,
        "name": "COSMOS 2544 (759)",
        "group": "glo-ops",
        "lat": 64.56992143486093,
        "lon": -173.4781934948865,
        "alt_km": 19154.017619735743,
        "timestamp": "2025-12-07T16:44:04.172509+00:00",
        "meta_object_name": "COSMOS 2544 (759)",
        "meta_object_id": "2019-088A",
        "meta_epoch": "2025-12-05T05:23:01.027680",
        "meta_mean_motion": 2.1310179,
        "meta_eccentricity": 0.00137742,
        "meta_inclination": 65.456,
        "meta_ra_of_asc_node": 80.2099,
        "meta_arg_of_pericenter": 249.0312,
        "meta_mean_anomaly": 110.8229,
        "meta_ephemeris_type": 0,
        "meta_classification_type": "U",
        "meta_norad_cat_id": 44850,
        "meta_element_set_no": 999,
        "meta_rev_at_epoch": 4658,
        "meta_bstar": 0,
        "meta_mean_motion_dot": -2e-07,
        "meta_mean_motion_ddot": 0,
        "tle_line1": "1 44850U 19088A   25339.22431745 -.00000020  00000+0  00000+0 0  9998",
        "tle_line2": "2 44850  65.4560  80.2099 0013774 249.0312 110.8229  2.13101790 46580"
      },
      "geometry": {
        "type": "Point",
        "coordinates": [
          -173.4781934948865,
          64.56992143486093
        ]
      }
    },
    {
      "type": "Feature",
      "properties": {
        "norad_id": 45358,
        "name": "COSMOS 2545 (760)",
        "group": "glo-ops",
        "lat": -46.15246644737737,
        "lon": -70.69389532005765,
        "alt_km": 19119.470440597328,
        "timestamp": "2025-12-07T16:44:04.172521+00:00",
        "meta_object_name": "COSMOS 2545 (760)",
        "meta_object_id": "2020-018A",
        "meta_epoch": "2025-12-01T04:43:25.038912",
        "meta_mean_motion": 2.13102323,
        "meta_eccentricity": 0.00119194,
        "meta_inclination": 64.4762,
        "meta_ra_of_asc_node": 319.3749,
        "meta_arg_of_pericenter": 248.338,
        "meta_mean_anomaly": 111.5456,
        "meta_ephemeris_type": 0,
        "meta_classification_type": "U",
        "meta_norad_cat_id": 45358,
        "meta_element_set_no": 999,
        "meta_rev_at_epoch": 4444,
        "meta_bstar": 0,
        "meta_mean_motion_dot": -2.8e-07,
        "meta_mean_motion_ddot": 0,
        "tle_line1": "1 45358U 20018A   25335.19681758 -.00000028  00000+0  00000+0 0  9998",
        "tle_line2": "2 45358  64.4762 319.3749 0011919 248.3380 111.5456  2.13102323 44447"
      },
      "geometry": {
        "type": "Point",
        "coordinates": [
          -70.69389532005765,
          -46.15246644737737
        ]
      }
    }
  ]
}